From: horizons@ssd.jpl.nasa.gov (Horizons Ephemeris System)
Subject: [Horizons] SMALL BODY #C(500@10)_T(364P/PANSTARRS) (1/1)
Date: March 1, 2021 at 1:23:10 PM PST

Automated mail xmit by MAIL_REQUEST, PID= 2301 Mon Mar  1 13:23:10 2021
++++++++++++++++++++++++++++++++ (part 1 of 1)  +++++++++++++++++++++++++++++++
*******************************************************************************
JPL/HORIZONS                   364P/PANSTARRS              2021-Mar-01 13:23:10
Rec #:90001287 (+COV) Soln.date: 2019-May-15_08:31:19    # obs: 748 (2013-2018)

IAU76/J2000 helio. ecliptic osc. elements (au, days, deg., period=Julian yrs):

 EPOCH=  2457839.5 ! 2017-Mar-27.0000000 (TDB)    RMSW= n.a.
  EC= .7225518933485438   QR= .7982172780038166   TP= 2458293.9130614358
  OM= 46.22760308240814   W= 211.9245321253267    IN= 12.15526964028399
  A= 2.8769966666472      MA= 268.2204673543077   ADIST= 4.955776055290584
  PER= 4.8799711265592    N= .201973794           ANGMOM= .020171034
  DAN= 3.55531            DDN= .85229             L= 257.5720038
  B= -6.3928782           MOID= .0867108          TP= 2018-Jun-24.4130614358

Comet physical (GM= km^3/s^2; RAD= km):
  GM= n.a.                RAD= n.a.
  M1=  16.6     M2=  19.2     k1=  11.    k2=  5.      PHCOF=  .030

COMET comments 
1: soln ref.= JPL#48, data arc: 2013-02-01 to 2018-11-04
2: k1=11., k2=5., phase coef.=0.03;
*******************************************************************************


*******************************************************************************
Ephemeris / MAIL_REQUEST Mon Mar  1 13:23:10 2021 Pasadena, USA  / Horizons
*******************************************************************************
Target body name: 364P/PANSTARRS                  {source: JPL#48}
Center body name: Sun (10)                        {source: DE431}
Center-site name: BODY CENTER
*******************************************************************************
Start time      : A.D. 1990-Jan-01 00:00:00.0000 TDB
Stop  time      : A.D. 2020-Dec-31 00:00:00.0000 TDB
Step-size       : 10080 minutes
*******************************************************************************
Center geodetic : 0.00000000,0.00000000,0.0000000 {E-lon(deg),Lat(deg),Alt(km)}
Center cylindric: 0.00000000,0.00000000,0.0000000 {E-lon(deg),Dxy(km),Dz(km)}
Center radii    : 696000.0 x 696000.0 x 696000.0 k{Equator, meridian, pole}    
Small perturbers: Yes                             {source: SB431-N16}
Output units    : AU-D
Output type     : GEOMETRIC cartesian states
Output format   : 6 (LT, range, and range-rate)
Reference frame : Ecliptic of J2000.0
*******************************************************************************
Initial IAU76/J2000 heliocentric ecliptic osculating elements (au, days, deg.):
 EPOCH=  2457839.5 ! 2017-Mar-27.0000000 (TDB)    RMSW= n.a.                  
  EC= .7225518933485438   QR= .7982172780038166   TP= 2458293.9130614358      
  OM= 46.22760308240814   W= 211.9245321253267    IN= 12.15526964028399       
 Equivalent ICRF heliocentric equatorial cartesian coordinates (au, au/d):
  X=-7.608827470740062E-01  Y= 3.342463184839056E+00  Z= 2.219556325986882E+00
 VX=-4.011153694984615E-03 VY=-4.620636792622263E-03 VZ=-2.150765362017503E-03
Comet physical (GM= km^3/s^2; RAD= km):                                        
  GM= n.a.                RAD= n.a.                                           
  M1=  16.6     M2=  19.2     k1=  11.    k2=  5.      PHCOF=  .030           
*******************************************************************************
           JDTDB,            Calendar Date (TDB),                     LT,                     RG,                     RR,
**************************************************************************************************************************
$$SOE
2449642.500000000, A.D. 1994-Oct-17 00:00:00.0000,  1.886282488166242E-02,  3.265996885333962E+00,  6.264721045880571E-03,
2449649.500000000, A.D. 1994-Oct-24 00:00:00.0000,  1.911390931530393E-02,  3.309470807367040E+00,  6.156691334061748E-03,
2449656.500000000, A.D. 1994-Oct-31 00:00:00.0000,  1.936066128377536E-02,  3.352194586309670E+00,  6.050385553610781E-03,
2449663.500000000, A.D. 1994-Nov-07 00:00:00.0000,  1.960314941412443E-02,  3.394180104566825E+00,  5.945750917430744E-03,
2449670.500000000, A.D. 1994-Nov-14 00:00:00.0000,  1.984144019257466E-02,  3.435438873871248E+00,  5.842734018353185E-03,
2449677.500000000, A.D. 1994-Nov-21 00:00:00.0000,  2.007559793876825E-02,  3.475982030823766E+00,  5.741281471610539E-03,
2449684.500000000, A.D. 1994-Nov-28 00:00:00.0000,  2.030568484675210E-02,  3.515820343989781E+00,  5.641341637676273E-03,
2449691.500000000, A.D. 1994-Dec-05 00:00:00.0000,  2.053176106172907E-02,  3.554964227188351E+00,  5.542864759682777E-03,
2449698.500000000, A.D. 1994-Dec-12 00:00:00.0000,  2.075388475122789E-02,  3.593423751814871E+00,  5.445802727296470E-03,
2449705.500000000, A.D. 1994-Dec-19 00:00:00.0000,  2.097211216856498E-02,  3.631208657829150E+00,  5.350108939111443E-03,
2449712.500000000, A.D. 1994-Dec-26 00:00:00.0000,  2.118649771214885E-02,  3.668328364023647E+00,  5.255738222185139E-03,
2449719.500000000, A.D. 1995-Jan-02 00:00:00.0000,  2.139709398164926E-02,  3.704791977748861E+00,  5.162646750613887E-03,
2449726.500000000, A.D. 1995-Jan-09 00:00:00.0000,  2.160395183044909E-02,  3.740608303995089E+00,  5.070791945226897E-03,
2449733.500000000, A.D. 1995-Jan-16 00:00:00.0000,  2.180712041506663E-02,  3.775785853949639E+00,  4.980132467639851E-03,
2449740.500000000, A.D. 1995-Jan-23 00:00:00.0000,  2.200664725427661E-02,  3.810332855233304E+00,  4.890628827653177E-03,
2449747.500000000, A.D. 1995-Jan-30 00:00:00.0000,  2.220257832855884E-02,  3.844257269119369E+00,  4.802244489411110E-03,
2449754.500000000, A.D. 1995-Feb-06 00:00:00.0000,  2.239495817950474E-02,  3.877566807745323E+00,  4.714944235423021E-03,
2449761.500000000, A.D. 1995-Feb-13 00:00:00.0000,  2.258382990734048E-02,  3.910268933683991E+00,  4.628691983575113E-03,
2449768.500000000, A.D. 1995-Feb-20 00:00:00.0000,  2.276923515956237E-02,  3.942370857975824E+00,  4.543452273076424E-03,
2449775.500000000, A.D. 1995-Feb-27 00:00:00.0000,  2.295121418235444E-02,  3.973879549031575E+00,  4.459191264376523E-03,
2449782.500000000, A.D. 1995-Mar-06 00:00:00.0000,  2.312980588437417E-02,  4.004801743676448E+00,  4.375876581483733E-03,
2449789.500000000, A.D. 1995-Mar-13 00:00:00.0000,  2.330504789072404E-02,  4.035143956494993E+00,  4.293477072887836E-03,
2449796.500000000, A.D. 1995-Mar-20 00:00:00.0000,  2.347697658938717E-02,  4.064912487871182E+00,  4.211962671879175E-03,
2449803.500000000, A.D. 1995-Mar-27 00:00:00.0000,  2.364562717303233E-02,  4.094113431226719E+00,  4.131304296842787E-03,
2449810.500000000, A.D. 1995-Apr-03 00:00:00.0000,  2.381103367673747E-02,  4.122752679552676E+00,  4.051473743518681E-03,
2449817.500000000, A.D. 1995-Apr-10 00:00:00.0000,  2.397322901105202E-02,  4.150835931134044E+00,  3.972443572158646E-03,
2449824.500000000, A.D. 1995-Apr-17 00:00:00.0000,  2.413224499365239E-02,  4.178368695030719E+00,  3.894187233141395E-03,
2449831.500000000, A.D. 1995-Apr-24 00:00:00.0000,  2.428811240236306E-02,  4.205356300257815E+00,  3.816680084418715E-03,
2449838.500000000, A.D. 1995-May-01 00:00:00.0000,  2.444086107249267E-02,  4.231803912638883E+00,  3.739899950364103E-03,
2449845.500000000, A.D. 1995-May-08 00:00:00.0000,  2.459051994828413E-02,  4.257716543714237E+00,  3.663824408958190E-03,
2449852.500000000, A.D. 1995-May-15 00:00:00.0000,  2.473711704246280E-02,  4.283099043736914E+00,  3.588430061632703E-03,
2449859.500000000, A.D. 1995-May-22 00:00:00.0000,  2.488067943283132E-02,  4.307956101083106E+00,  3.513694257497902E-03,
2449866.500000000, A.D. 1995-May-29 00:00:00.0000,  2.502123330558179E-02,  4.332292249751428E+00,  3.439595517118316E-03,
2449873.500000000, A.D. 1995-Jun-05 00:00:00.0000,  2.515880399846178E-02,  4.356111876836874E+00,  3.366113307808445E-03,
2449880.500000000, A.D. 1995-Jun-12 00:00:00.0000,  2.529341603493332E-02,  4.379419228445270E+00,  3.293227856086033E-03,
2449887.500000000, A.D. 1995-Jun-19 00:00:00.0000,  2.542509315236405E-02,  4.402218414574416E+00,  3.220920030578634E-03,
2449894.500000000, A.D. 1995-Jun-26 00:00:00.0000,  2.555385832592770E-02,  4.424513413252331E+00,  3.149171238421090E-03,
2449901.500000000, A.D. 1995-Jul-03 00:00:00.0000,  2.567973378790172E-02,  4.446308073878522E+00,  3.077963298040507E-03,
2449908.500000000, A.D. 1995-Jul-10 00:00:00.0000,  2.580274104186521E-02,  4.467606119682298E+00,  3.007278342485636E-03,
2449915.500000000, A.D. 1995-Jul-17 00:00:00.0000,  2.592290088025006E-02,  4.488411150761638E+00,  2.937099213313378E-03,
2449922.500000000, A.D. 1995-Jul-24 00:00:00.0000,  2.604023343857079E-02,  4.508726653472810E+00,  2.867410779870926E-03,
2449929.500000000, A.D. 1995-Jul-31 00:00:00.0000,  2.615475827748386E-02,  4.528556014638490E+00,  2.798199250254505E-03,
2449936.500000000, A.D. 1995-Aug-07 00:00:00.0000,  2.626649437491664E-02,  4.547902520184941E+00,  2.729449360934642E-03,
2449943.500000000, A.D. 1995-Aug-14 00:00:00.0000,  2.637546007028769E-02,  4.566769345484056E+00,  2.661145123593983E-03,
2449950.500000000, A.D. 1995-Aug-21 00:00:00.0000,  2.648167306738411E-02,  4.585159555851545E+00,  2.593271167357519E-03,
2449957.500000000, A.D. 1995-Aug-28 00:00:00.0000,  2.658515046289400E-02,  4.603076111487193E+00,  2.525812794928696E-03,
2449964.500000000, A.D. 1995-Sep-04 00:00:00.0000,  2.668590876935615E-02,  4.620521871448459E+00,  2.458755776903773E-03,
2449971.500000000, A.D. 1995-Sep-11 00:00:00.0000,  2.678396393115260E-02,  4.637499596419520E+00,  2.392086219700586E-03,
2449978.500000000, A.D. 1995-Sep-18 00:00:00.0000,  2.687933133630501E-02,  4.654011950753729E+00,  2.325790480703678E-03,
2449985.500000000, A.D. 1995-Sep-25 00:00:00.0000,  2.697202582491218E-02,  4.670061503934545E+00,  2.259855079654587E-03,
